[{"OBJECT_NAME":"STARLINK-4539","OBJECT_ID":"2022-097AM","EPOCH":"2025-12-25T14:54:20.974176","MEAN_MOTION":15.0883688,"ECCENTRICITY":0.0001132,"INCLINATION":53.2187,"RA_OF_ASC_NODE":86.6366,"ARG_OF_PERICENTER":84.8804,"MEAN_ANOMALY":275.2318,"EPHEMERIS_TYPE":0,"CLASSIFICATION_TYPE":"U","NORAD_CAT_ID":53423,"ELEMENT_SET_NO":999,"REV_AT_EPOCH":18744,"BSTAR":0.00013105,"MEAN_MOTION_DOT":1.798e-5,"MEAN_MOTION_DDOT":0},{"OBJECT_NAME":"STARLINK-4532","OBJECT_ID":"2022-097AN","EPOCH":"2025-12-25T12:51:04.537152","MEAN_MOTION":15.08832888,"ECCENTRICITY":0.0001528,"INCLINATION":53.2178,"RA_OF_ASC_NODE":87.0108,"ARG_OF_PERICENTER":93.7556,"MEAN_ANOMALY":266.3611,"EPHEMERIS_TYPE":0,"CLASSIFICATION_TYPE":"U","NORAD_CAT_ID":53424,"ELEMENT_SET_NO":999,"REV_AT_EPOCH":18745,"BSTAR":1.4271e-5,"MEAN_MOTION_DOT":-6.1e-7,"MEAN_MOTION_DDOT":0},{"OBJECT_NAME":"STARLINK-4531","OBJECT_ID":"2022-097AP","EPOCH":"2025-12-25T13:06:58.024224","MEAN_MOTION":15.08835875,"ECCENTRICITY":0.000118,"INCLINATION":53.2178,"RA_OF_ASC_NODE":86.9626,"ARG_OF_PERICENTER":89.791,"MEAN_ANOMALY":270.3217,"EPHEMERIS_TYPE":0,"CLASSIFICATION_TYPE":"U","NORAD_CAT_ID":53425,"ELEMENT_SET_NO":999,"REV_AT_EPOCH":18742,"BSTAR":8.5253e-5,"MEAN_MOTION_DOT":1.069e-5,"MEAN_MOTION_DDOT":0},{"OBJECT_NAME":"STARLINK-4558","OBJECT_ID":"2022-097AQ","EPOCH":"2025-12-25T12:20:38.049792","MEAN_MOTION":15.08831032,"ECCENTRICITY":0.0001247,"INCLINATION":53.2192,"RA_OF_ASC_NODE":77.263,"ARG_OF_PERICENTER":89.1408,"MEAN_ANOMALY":270.9727,"EPHEMERIS_TYPE":0,"CLASSIFICATION_TYPE":"U","NORAD_CAT_ID":53426,"ELEMENT_SET_NO":999,"REV_AT_EPOCH":18758,"BSTAR":7.5796e-5,"MEAN_MOTION_DOT":9.18e-6,"MEAN_MOTION_DDOT":0},{"OBJECT_NAME":"STARLINK-4543","OBJECT_ID":"2022-097AT","EPOCH":"2025-12-25T15:26:05.065152","MEAN_MOTION":15.08842557,"ECCENTRICITY":0.0001314,"INCLINATION":53.2191,"RA_OF_ASC_NODE":76.6427,"ARG_OF_PERICENTER":96.2702,"MEAN_ANOMALY":263.844,"EPHEMERIS_TYPE":0,"CLASSIFICATION_TYPE":"U","NORAD_CAT_ID":53429,"ELEMENT_SET_NO":999,"REV_AT_EPOCH":18760,"BSTAR":-1.4426e-5,"MEAN_MOTION_DOT":-5.17e-6,"MEAN_MOTION_DDOT":0},{"OBJECT_NAME":"STARLINK-4538","OBJECT_ID":"2022-097AU","EPOCH":"2025-12-25T10:29:19.360032","MEAN_MOTION":15.08836033,"ECCENTRICITY":0.0001333,"INCLINATION":53.2175,"RA_OF_ASC_NODE":77.4878,"ARG_OF_PERICENTER":97.4992,"MEAN_ANOMALY":262.6152,"EPHEMERIS_TYPE":0,"CLASSIFICATION_TYPE":"U","NORAD_CAT_ID":53430,"ELEMENT_SET_NO":999,"REV_AT_EPOCH":18755,"BSTAR":1.799e-5,"MEAN_MOTION_DOT":-2.0e-8,"MEAN_MOTION_DDOT":0},{"OBJECT_NAME":"STARLINK-4548","OBJECT_ID":"2022-097AV","EPOCH":"2025-12-25T12:41:44.045664","MEAN_MOTION":15.08833551,"ECCENTRICITY":0.0001286,"INCLINATION":53.2187,"RA_OF_ASC_NODE":76.6582,"ARG_OF_PERICENTER":97.4111,"MEAN_ANOMALY":262.7027,"EPHEMERIS_TYPE":0,"CLASSIFICATION_TYPE":"U","NORAD_CAT_ID":53431,"ELEMENT_SET_NO":999,"REV_AT_EPOCH":18759,"BSTAR":3.1035e-5,"MEAN_MOTION_DOT":2.06e-6,"MEAN_MOTION_DDOT":0},{"OBJECT_NAME":"STARLINK-4557","OBJECT_ID":"2022-097AW","EPOCH":"2025-12-25T13:02:57.064128","MEAN_MOTION":15.08842557,"ECCENTRICITY":0.0001408,"INCLINATION":53.2178,"RA_OF_ASC_NODE":76.7386,"ARG_OF_PERICENTER":91.9111,"MEAN_ANOMALY":268.2043,"EPHEMERIS_TYPE":0,"CLASSIFICATION_TYPE":"U","NORAD_CAT_ID":53432,"ELEMENT_SET_NO":999,"REV_AT_EPOCH":18759,"BSTAR":0.00020033,"MEAN_MOTION_DOT":2.902e-5,"MEAN_MOTION_DDOT":0},{"OBJECT_NAME":"STARLINK-4549","OBJECT_ID":"2022-097AX","EPOCH":"2025-12-25T15:10:10.688160","MEAN_MOTION":15.08836312,"ECCENTRICITY":0.0001426,"INCLINATION":53.2207,"RA_OF_ASC_NODE":76.5732,"ARG_OF_PERICENTER":107.3942,"MEAN_ANOMALY":252.7206,"EPHEMERIS_TYPE":0,"CLASSIFICATION_TYPE":"U","NORAD_CAT_ID":53433,"ELEMENT_SET_NO":999,"REV_AT_EPOCH":18758,"BSTAR":2.4278e-5,"MEAN_MOTION_DOT":9.8e-7,"MEAN_MOTION_DDOT":0},{"OBJECT_NAME":"STARLINK-4498","OBJECT_ID":"2022-097AY","EPOCH":"2025-12-25T14:33:02.394144","MEAN_MOTION":15.08833284,"ECCENTRICITY":0.0001387,"INCLINATION":53.2188,"RA_OF_ASC_NODE":76.417,"ARG_OF_PERICENTER":90.1698,"MEAN_ANOMALY":269.9453,"EPHEMERIS_TYPE":0,"CLASSIFICATION_TYPE":"U","NORAD_CAT_ID":53434,"ELEMENT_SET_NO":999,"REV_AT_EPOCH":18761,"BSTAR":7.5146e-5,"MEAN_MOTION_DOT":9.08e-6,"MEAN_MOTION_DDOT":0},{"OBJECT_NAME":"STARLINK-4542","OBJECT_ID":"2022-097AZ","EPOCH":"2025-12-25T13:08:15.639072","MEAN_MOTION":15.08829842,"ECCENTRICITY":0.0001233,"INCLINATION":53.2165,"RA_OF_ASC_NODE":76.76,"ARG_OF_PERICENTER":90.3557,"MEAN_ANOMALY":269.7576,"EPHEMERIS_TYPE":0,"CLASSIFICATION_TYPE":"U","NORAD_CAT_ID":53435,"ELEMENT_SET_NO":999,"REV_AT_EPOCH":18757,"BSTAR":0.00014241,"MEAN_MOTION_DOT":1.979e-5,"MEAN_MOTION_DDOT":0},{"OBJECT_NAME":"STARLINK-4527","OBJECT_ID":"2022-097BA","EPOCH":"2025-12-25T12:52:20.614080","MEAN_MOTION":15.08836935,"ECCENTRICITY":0.0001281,"INCLINATION":53.2179,"RA_OF_ASC_NODE":76.6928,"ARG_OF_PERICENTER":96.3088,"MEAN_ANOMALY":263.805,"EPHEMERIS_TYPE":0,"CLASSIFICATION_TYPE":"U","NORAD_CAT_ID":53436,"ELEMENT_SET_NO":999,"REV_AT_EPOCH":18759,"BSTAR":0.00012323,"MEAN_MOTION_DOT":1.674e-5,"MEAN_MOTION_DDOT":0},{"OBJECT_NAME":"STARLINK-4526","OBJECT_ID":"2022-097BC","EPOCH":"2025-12-25T12:47:02.179104","MEAN_MOTION":15.08837268,"ECCENTRICITY":0.0001315,"INCLINATION":53.219,"RA_OF_ASC_NODE":76.6699,"ARG_OF_PERICENTER":90.1342,"MEAN_ANOMALY":269.9801,"EPHEMERIS_TYPE":0,"CLASSIFICATION_TYPE":"U","NORAD_CAT_ID":53438,"ELEMENT_SET_NO":999,"REV_AT_EPOCH":18760,"BSTAR":7.9779e-5,"MEAN_MOTION_DOT":9.82e-6,"MEAN_MOTION_DDOT":0},{"OBJECT_NAME":"STARLINK-4519","OBJECT_ID":"2022-097BD","EPOCH":"2025-12-25T14:39:43.401600","MEAN_MOTION":15.08832143,"ECCENTRICITY":0.0001316,"INCLINATION":53.2173,"RA_OF_ASC_NODE":76.4413,"ARG_OF_PERICENTER":83.3459,"MEAN_ANOMALY":276.7682,"EPHEMERIS_TYPE":0,"CLASSIFICATION_TYPE":"U","NORAD_CAT_ID":53439,"ELEMENT_SET_NO":999,"REV_AT_EPOCH":18761,"BSTAR":3.3469e-5,"MEAN_MOTION_DOT":2.45e-6,"MEAN_MOTION_DDOT":0},{"OBJECT_NAME":"STARLINK-4415","OBJECT_ID":"2022-099A","EPOCH":"2025-12-25T20:29:11.891040","MEAN_MOTION":15.05645946,"ECCENTRICITY":7.84e-5,"INCLINATION":97.6032,"RA_OF_ASC_NODE":118.4388,"ARG_OF_PERICENTER":99.0467,"MEAN_ANOMALY":261.0849,"EPHEMERIS_TYPE":0,"CLASSIFICATION_TYPE":"U","NORAD_CAT_ID":53465,"ELEMENT_SET_NO":999,"REV_AT_EPOCH":18492,"BSTAR":-1.5989e-5,"MEAN_MOTION_DOT":-2.91e-6,"MEAN_MOTION_DDOT":0},{"OBJECT_NAME":"STARLINK-4398","OBJECT_ID":"2022-099B","EPOCH":"2025-12-25T19:27:01.925280","MEAN_MOTION":15.01263645,"ECCENTRICITY":0.0002111,"INCLINATION":97.6028,"RA_OF_ASC_NODE":117.8866,"ARG_OF_PERICENTER":90.19,"MEAN_ANOMALY":269.9567,"EPHEMERIS_TYPE":0,"CLASSIFICATION_TYPE":"U","NORAD_CAT_ID":53466,"ELEMENT_SET_NO":999,"REV_AT_EPOCH":18489,"BSTAR":4.7416e-5,"MEAN_MOTION_DOT":5.51e-6,"MEAN_MOTION_DDOT":0},{"OBJECT_NAME":"STARLINK-4394","OBJECT_ID":"2022-099C","EPOCH":"2025-12-25T18:45:31.293216","MEAN_MOTION":15.05650715,"ECCENTRICITY":4.21e-5,"INCLINATION":97.6027,"RA_OF_ASC_NODE":118.4225,"ARG_OF_PERICENTER":139.1939,"MEAN_ANOMALY":220.9319,"EPHEMERIS_TYPE":0,"CLASSIFICATION_TYPE":"U","NORAD_CAT_ID":53467,"ELEMENT_SET_NO":999,"REV_AT_EPOCH":18492,"BSTAR":3.5096e-5,"MEAN_MOTION_DOT":4.46e-6,"MEAN_MOTION_DDOT":0},{"OBJECT_NAME":"STARLINK-4400","OBJECT_ID":"2022-099D","EPOCH":"2025-12-25T19:21:41.851296","MEAN_MOTION":15.01266933,"ECCENTRICITY":0.0003074,"INCLINATION":97.602,"RA_OF_ASC_NODE":117.882,"ARG_OF_PERICENTER":79.9264,"MEAN_ANOMALY":280.2307,"EPHEMERIS_TYPE":0,"CLASSIFICATION_TYPE":"U","NORAD_CAT_ID":53468,"ELEMENT_SET_NO":999,"REV_AT_EPOCH":18489,"BSTAR":7.8076e-5,"MEAN_MOTION_DOT":9.45e-6,"MEAN_MOTION_DDOT":0},{"OBJECT_NAME":"STARLINK-4399","OBJECT_ID":"2022-099E","EPOCH":"2025-12-25T20:05:16.197792","MEAN_MOTION":15.05651968,"ECCENTRICITY":6.98e-5,"INCLINATION":97.6018,"RA_OF_ASC_NODE":118.442,"ARG_OF_PERICENTER":104.1295,"MEAN_ANOMALY":256.0009,"EPHEMERIS_TYPE":0,"CLASSIFICATION_TYPE":"U","NORAD_CAT_ID":53469,"ELEMENT_SET_NO":999,"REV_AT_EPOCH":18493,"BSTAR":5.0875e-5,"MEAN_MOTION_DOT":6.73e-6,"MEAN_MOTION_DDOT":0},{"OBJECT_NAME":"STARLINK-4393","OBJECT_ID":"2022-099F","EPOCH":"2025-12-25T19:18:41.105088","MEAN_MOTION":15.01260558,"ECCENTRICITY":0.0002822,"INCLINATION":97.603,"RA_OF_ASC_NODE":117.8813,"ARG_OF_PERICENTER":84.2004,"MEAN_ANOMALY":275.9542,"EPHEMERIS_TYPE":0,"CLASSIFICATION_TYPE":"U","NORAD_CAT_ID":53470,"ELEMENT_SET_NO":999,"REV_AT_EPOCH":18489,"BSTAR":6.9355e-6,"MEAN_MOTION_DOT":3.1e-7,"MEAN_MOTION_DDOT":0},{"OBJECT_NAME":"STARLINK-4316","OBJECT_ID":"2022-099G","EPOCH":"2025-12-25T20:33:10.774080","MEAN_MOTION":15.05647761,"ECCENTRICITY":7.51e-5,"INCLINATION":97.6029,"RA_OF_ASC_NODE":118.4101,"ARG_OF_PERICENTER":120.6854,"MEAN_ANOMALY":239.4447,"EPHEMERIS_TYPE":0,"CLASSIFICATION_TYPE":"U","NORAD_CAT_ID":53471,"ELEMENT_SET_NO":999,"REV_AT_EPOCH":18493,"BSTAR":-1.5345e-5,"MEAN_MOTION_DOT":-2.82e-6,"MEAN_MOTION_DDOT":0},{"OBJECT_NAME":"STARLINK-4447","OBJECT_ID":"2022-099H","EPOCH":"2025-12-25T19:13:21.127008","MEAN_MOTION":15.01262645,"ECCENTRICITY":0.0003074,"INCLINATION":97.6036,"RA_OF_ASC_NODE":117.8808,"ARG_OF_PERICENTER":68.9649,"MEAN_ANOMALY":291.1903,"EPHEMERIS_TYPE":0,"CLASSIFICATION_TYPE":"U","NORAD_CAT_ID":53472,"ELEMENT_SET_NO":999,"REV_AT_EPOCH":18489,"BSTAR":2.268e-5,"MEAN_MOTION_DOT":2.33e-6,"MEAN_MOTION_DDOT":0},{"OBJECT_NAME":"STARLINK-4383","OBJECT_ID":"2022-099J","EPOCH":"2025-12-25T06:59:44.215008","MEAN_MOTION":15.0565059,"ECCENTRICITY":8.43e-5,"INCLINATION":97.602,"RA_OF_ASC_NODE":117.9194,"ARG_OF_PERICENTER":96.2016,"MEAN_ANOMALY":263.9307,"EPHEMERIS_TYPE":0,"CLASSIFICATION_TYPE":"U","NORAD_CAT_ID":53473,"ELEMENT_SET_NO":999,"REV_AT_EPOCH":18485,"BSTAR":7.8835e-5,"MEAN_MOTION_DOT":1.077e-5,"MEAN_MOTION_DDOT":0}]
